{
  "type": "FeatureCollection",
  "features": [
    {
      "type": "Feature",
      "properties": {
        "norad_id": 31452,
        "name": "FENGYUN 1C DEB",
        "group": "fengyun-1c-debris",
        "lat": 78.75742776342489,
        "lon": -165.97830561539527,
        "alt_km": 819.4092866403171,
        "timestamp": "2025-12-02T17:49:12.310450+00:00",
        "meta_object_name": "FENGYUN 1C DEB",
        "meta_object_id": "1999-025BUQ",
        "meta_epoch": "2025-12-02T05:28:59.848608",
        "meta_mean_motion": 14.15144251,
        "meta_eccentricity": 0.004031,
        "meta_inclination": 98.658,
        "meta_ra_of_asc_node": 323.48,
        "meta_arg_of_pericenter": 157.7123,
        "meta_mean_anomaly": 202.5814,
        "meta_ephemeris_type": 0,
        "meta_classification_type": "U",
        "meta_norad_cat_id": 31452,
        "meta_element_set_no": 999,
        "meta_rev_at_epoch": 96057,
        "meta_bstar": 0.00046116,
        "meta_mean_motion_dot": 8.6e-06,
        "meta_mean_motion_ddot": 0,
        "tle_line1": "1 31452U 99025BUQ 25336.22847047  .00000860  00000+0  46116-3 0  9997",
        "tle_line2": "2 31452  98.6580 323.4800 0040310 157.7123 202.5814 14.15144251960574"
      },
      "geometry": {
        "type": "Point",
        "coordinates": [
          -165.97830561539527,
          78.75742776342489
        ]
      }
    },
    {
      "type": "Feature",
      "properties": {
        "norad_id": 31455,
        "name": "FENGYUN 1C DEB",
        "group": "fengyun-1c-debris",
        "lat": -32.21939083009088,
        "lon": 139.9555277354306,
        "alt_km": 966.4451433535505,
        "timestamp": "2025-12-02T17:49:12.310460+00:00",
        "meta_object_name": "FENGYUN 1C DEB",
        "meta_object_id": "1999-025BUT",
        "meta_epoch": "2025-12-01T05:06:27.684288",
        "meta_mean_motion": 14.11407074,
        "meta_eccentricity": 0.0218887,
        "meta_inclination": 98.5737,
        "meta_ra_of_asc_node": 323.9486,
        "meta_arg_of_pericenter": 84.0104,
        "meta_mean_anomaly": 278.5966,
        "meta_ephemeris_type": 0,
        "meta_classification_type": "U",
        "meta_norad_cat_id": 31455,
        "meta_element_set_no": 999,
        "meta_rev_at_epoch": 95941,
        "meta_bstar": 0.00026567,
        "meta_mean_motion_dot": 5.62e-06,
        "meta_mean_motion_ddot": 0,
        "tle_line1": "1 31455U 99025BUT 25335.21282042  .00000562  00000+0  26567-3 0  9993",
        "tle_line2": "2 31455  98.5737 323.9486 0218887  84.0104 278.5966 14.11407074959415"
      },
      "geometry": {
        "type": "Point",
        "coordinates": [
          139.9555277354306,
          -32.21939083009088
        ]
      }
    },
    {
      "type": "Feature",
      "properties": {
        "norad_id": 31456,
        "name": "FENGYUN 1C DEB",
        "group": "fengyun-1c-debris",
        "lat": 18.7076739436043,
        "lon": -98.0374154219495,
        "alt_km": 799.3679702222798,
        "timestamp": "2025-12-02T17:49:12.310470+00:00",
        "meta_object_name": "FENGYUN 1C DEB",
        "meta_object_id": "1999-025BUU",
        "meta_epoch": "2025-12-01T12:46:16.695552",
        "meta_mean_motion": 14.42301332,
        "meta_eccentricity": 0.00678284,
        "meta_inclination": 98.5781,
        "meta_ra_of_asc_node": 77.816,
        "meta_arg_of_pericenter": 348.4269,
        "meta_mean_anomaly": 11.5358,
        "meta_ephemeris_type": 0,
        "meta_classification_type": "U",
        "meta_norad_cat_id": 31456,
        "meta_element_set_no": 999,
        "meta_rev_at_epoch": 97305,
        "meta_bstar": 0.00080227123,
        "meta_mean_motion_dot": 2.676e-05,
        "meta_mean_motion_ddot": 0,
        "tle_line1": "1 31456U 99025BUU 25335.53213768  .00002676  00000+0  80227-3 0  9999",
        "tle_line2": "2 31456  98.5781  77.8160 0067828 348.4269  11.5358 14.42301332973055"
      },
      "geometry": {
        "type": "Point",
        "coordinates": [
          -98.0374154219495,
          18.7076739436043
        ]
      }
    },
    {
      "type": "Feature",
      "properties": {
        "norad_id": 31459,
        "name": "FENGYUN 1C DEB",
        "group": "fengyun-1c-debris",
        "lat": 43.048511162100546,
        "lon": -122.32311763411806,
        "alt_km": 773.4585848873585,
        "timestamp": "2025-12-02T17:49:12.310480+00:00",
        "meta_object_name": "FENGYUN 1C DEB",
        "meta_object_id": "1999-025BUX",
        "meta_epoch": "2025-11-29T11:26:52.184832",
        "meta_mean_motion": 14.4388821,
        "meta_eccentricity": 0.00932651,
        "meta_inclination": 98.1728,
        "meta_ra_of_asc_node": 242.2547,
        "meta_arg_of_pericenter": 172.3319,
        "meta_mean_anomaly": 187.9324,
        "meta_ephemeris_type": 0,
        "meta_classification_type": "U",
        "meta_norad_cat_id": 31459,
        "meta_element_set_no": 999,
        "meta_rev_at_epoch": 64366,
        "meta_bstar": 0.0012379846,
        "meta_mean_motion_dot": 4.409e-05,
        "meta_mean_motion_ddot": 0,
        "tle_line1": "1 31459U 99025BUX 25333.47699288  .00004409  00000+0  12380-2 0  9998",
        "tle_line2": "2 31459  98.1728 242.2547 0093265 172.3319 187.9324 14.43888210643664"
      },
      "geometry": {
        "type": "Point",
        "coordinates": [
          -122.32311763411806,
          43.048511162100546
        ]
      }
    },
    {
      "type": "Feature",
      "properties": {
        "norad_id": 31462,
        "name": "FENGYUN 1C DEB",
        "group": "fengyun-1c-debris",
        "lat": -76.38224938834637,
        "lon": 136.2860983853212,
        "alt_km": 836.0118422209825,
        "timestamp": "2025-12-02T17:49:12.310490+00:00",
        "meta_object_name": "FENGYUN 1C DEB",
        "meta_object_id": "1999-025BVA",
        "meta_epoch": "2025-12-01T12:26:00.233664",
        "meta_mean_motion": 14.12988365,
        "meta_eccentricity": 0.00314859,
        "meta_inclination": 98.6906,
        "meta_ra_of_asc_node": 354.2485,
        "meta_arg_of_pericenter": 236.8401,
        "meta_mean_anomaly": 277.4849,
        "meta_ephemeris_type": 0,
        "meta_classification_type": "U",
        "meta_norad_cat_id": 31462,
        "meta_element_set_no": 999,
        "meta_rev_at_epoch": 95697,
        "meta_bstar": 0.00039554017,
        "meta_mean_motion_dot": 6.98e-06,
        "meta_mean_motion_ddot": 0,
        "tle_line1": "1 31462U 99025BVA 25335.51805826  .00000698  00000+0  39554-3 0  9995",
        "tle_line2": "2 31462  98.6906 354.2485 0031485 236.8401 277.4849 14.12988365956976"
      },
      "geometry": {
        "type": "Point",
        "coordinates": [
          136.2860983853212,
          -76.38224938834637
        ]
      }
    },
    {
      "type": "Feature",
      "properties": {
        "norad_id": 31463,
        "name": "FENGYUN 1C DEB",
        "group": "fengyun-1c-debris",
        "lat": 79.79936007734113,
        "lon": -104.8288834157273,
        "alt_km": 614.2560104565364,
        "timestamp": "2025-12-02T17:49:12.310500+00:00",
        "meta_object_name": "FENGYUN 1C DEB",
        "meta_object_id": "1999-025BVB",
        "meta_epoch": "2025-12-01T16:22:11.548704",
        "meta_mean_motion": 14.36878903,
        "meta_eccentricity": 0.02141373,
        "meta_inclination": 99.0794,
        "meta_ra_of_asc_node": 316.76,
        "meta_arg_of_pericenter": 72.118,
        "meta_mean_anomaly": 290.3231,
        "meta_ephemeris_type": 0,
        "meta_classification_type": "U",
        "meta_norad_cat_id": 31463,
        "meta_element_set_no": 999,
        "meta_rev_at_epoch": 64561,
        "meta_bstar": 0.00046325906,
        "meta_mean_motion_dot": 1.728e-05,
        "meta_mean_motion_ddot": 0,
        "tle_line1": "1 31463U 99025BVB 25335.68207811  .00001728  00000+0  46326-3 0  9994",
        "tle_line2": "2 31463  99.0794 316.7600 0214137  72.1180 290.3231 14.36878903645618"
      },
      "geometry": {
        "type": "Point",
        "coordinates": [
          -104.8288834157273,
          79.79936007734113
        ]
      }
    },
    {
      "type": "Feature",
      "properties": {
        "norad_id": 31464,
        "name": "FENGYUN 1C DEB",
        "group": "fengyun-1c-debris",
        "lat": -41.055820064568735,
        "lon": -164.04022102391542,
        "alt_km": 837.3879683027963,
        "timestamp": "2025-12-02T17:49:12.310511+00:00",
        "meta_object_name": "FENGYUN 1C DEB",
        "meta_object_id": "1999-025BVC",
        "meta_epoch": "2025-11-29T09:10:00.256224",
        "meta_mean_motion": 14.12452447,
        "meta_eccentricity": 0.00429275,
        "meta_inclination": 98.7967,
        "meta_ra_of_asc_node": 20.4124,
        "meta_arg_of_pericenter": 280.9285,
        "meta_mean_anomaly": 142.6664,
        "meta_ephemeris_type": 0,
        "meta_classification_type": "U",
        "meta_norad_cat_id": 31464,
        "meta_element_set_no": 999,
        "meta_rev_at_epoch": 94491,
        "meta_bstar": 0.00030508606,
        "meta_mean_motion_dot": 5.24e-06,
        "meta_mean_motion_ddot": 0,
        "tle_line1": "1 31464U 99025BVC 25333.38194741  .00000524  00000+0  30509-3 0  9996",
        "tle_line2": "2 31464  98.7967  20.4124 0042927 280.9285 142.6664 14.12452447944917"
      },
      "geometry": {
        "type": "Point",
        "coordinates": [
          -164.04022102391542,
          -41.055820064568735
        ]
      }
    }
  ]
}